[
    {
        "Altitude(m)": 610405.2808922267,
        "Argument of Periapsis(deg)": 0.0,
        "Eccentricity": 0.0,
        "Inclination(deg)": 60.0,
        "Latitude(deg)": 52.11115532206243,
        "Longitude(deg)": -47.522652229678336,
        "Mean Anomaly(deg)": -245.4545,
        "RAAN(deg)": 280.0,
        "Satellite Name": "Test1 1239",
        "Satellite Number": 1239,
        "Semi-Major Axis(m)": 6980739.136638005,
        "Time(s)": 0
    },
    {
        "Altitude(m)": 610321.854010277,
        "Argument of Periapsis(deg)": 0.00010418945913296404,
        "Eccentricity": 0.0,
        "Inclination(deg)": 60.0,
        "Latitude(deg)": 51.74587103601168,
        "Longitude(deg)": -46.75375945065707,
        "Mean Anomaly(deg)": -244.83439385453818,
        "RAAN(deg)": 279.99957995086027,
        "Satellite Name": "Test1 1239",
        "Satellite Number": 1239,
        "Semi-Major Axis(m)": 6980739.136638005,
        "Time(s)": 10
    }
]